LEMUR-2-LIA-MARTIN      
1 63248U 25052AQ  26068.70341042  .00006911  00000+0  60828-3 0  9993
2 63248  97.6996 322.6614 0003817 139.7155 220.4350 14.96805944 53795
STARLINK-36263          
1 67202U 25304L   26068.29534749  .00022821  00000+0  19147-2 0  9994
2 67202  70.0012 175.5312 0003541 267.9987  92.0766 14.98319080 13821
